NORAD_CAT_ID,OBJECT_NAME,OBJECT_TYPE,EPOCH,MEAN_MOTION,ECCENTRICITY,INCLINATION,RA_OF_ASC_NODE,ARG_OF_PERICENTER,MEAN_ANOMALY,BSTAR,MEAN_MOTION_DOT,MEAN_MOTION_DDOT,TLE_LINE0,TLE_LINE1,TLE_LINE2,SEMIMAJOR_AXIS,PERIOD,APOGEE,PERIGEE,DECAYED
51746.0,STARLINK-3502,PAYLOAD,2023-11-23 13:47:21,15.08826717,0.0001323,53.2173,107.0854,102.7723,257.3417,-4.3474e-05,-9.79e-06,0.0,0 STARLINK-3502,1 51746U 22016AJ  23327.57454874 -.00000979  00000-0 -43474-4 0  9998,2 51746  53.2173 107.0854 0001323 102.7723 257.3417 15.08826717 97327,6917.921,95.438,540.701,538.871,0.0
51746.0,STARLINK-3502,PAYLOAD,2023-11-23 18:33:30,15.08829611,0.0001388,53.2175,106.1933,94.6766,265.4384,-5.138e-05,-1.105e-05,0.0,0 STARLINK-3502,1 51746U 22016AJ  23327.77326899 -.00001105  00000-0 -51380-4 0  9992,2 51746  53.2175 106.1933 0001388  94.6766 265.4384 15.08829611 98470,6917.912,95.438,540.737,538.817,0.0
51746.0,STARLINK-3502,PAYLOAD,2023-11-24 13:38:07,15.0883855,0.0001443,53.2171,102.6266,93.2142,266.9015,0.00010805,1.432e-05,0.0,0 STARLINK-3502,1 51746U 22016AJ  23328.56814261  .00001432  00000-0  10805-3 0  9992,2 51746  53.2171 102.6266 0001443  93.2142 266.9015 15.08838550 97479,6917.885,95.438,540.748,538.752,0.0
51746.0,STARLINK-3502,PAYLOAD,2023-11-24 16:48:53,15.08842502,0.0001617,53.2171,102.0331,79.4315,280.686,9.1828e-05,1.174e-05,0.0,0 STARLINK-3502,1 51746U 22016AJ  23328.70062192  .00001174  00000-0  91828-4 0  9994,2 51746  53.2171 102.0331 0001617  79.4315 280.6860 15.08842502 98617,6917.873,95.437,540.856,538.619,0.0
51746.0,STARLINK-3502,PAYLOAD,2023-11-25 13:28:54,15.08843026,0.0001422,53.2176,98.1657,87.4702,272.6453,0.00020526,2.981e-05,0.0,0 STARLINK-3502,1 51746U 22016AJ  23329.56174122  .00002981  00000-0  20526-3 0  9999,2 51746  53.2176  98.1657 0001422  87.4702 272.6453 15.08843026 97622,6917.871,95.437,540.72,538.752,0.0
51746.0,STARLINK-3502,PAYLOAD,2023-11-25 15:04:17,15.08844082,0.0001663,53.2185,97.8674,72.4522,287.6652,0.00021232,3.093e-05,0.0,0 STARLINK-3502,1 51746U 22016AJ  23329.62798136  .00003093  00000-0  21232-3 0  9993,2 51746  53.2185  97.8674 0001663  72.4522 287.6652 15.08844082 97639,6917.868,95.437,540.883,538.582,0.0
51746.0,STARLINK-3502,PAYLOAD,2023-11-26 11:44:17,15.08857176,0.0001347,53.2154,94.0004,85.3874,274.7272,0.00014458,2.015e-05,0.0,0 STARLINK-3502,1 51746U 22016AJ  23330.48909175  .00002015  00000-0  14458-3 0  9991,2 51746  53.2154  94.0004 0001347  85.3874 274.7272 15.08857176 98884,6917.828,95.436,540.625,538.761,0.0
51746.0,STARLINK-3502,PAYLOAD,2023-11-26 13:19:40,15.08859253,0.0001379,53.2155,93.7031,81.1776,278.9372,0.00017706,2.533e-05,0.0,0 STARLINK-3502,1 51746U 22016AJ  23330.55533023  .00002533  00000-0  17706-3 0  9998,2 51746  53.2155  93.7031 0001379  81.1776 278.9372 15.08859253 97773,6917.822,95.436,540.641,538.733,0.0
51746.0,STARLINK-3502,PAYLOAD,2023-11-26 14:55:03,15.08860078,0.0001396,53.2157,93.4053,84.0063,276.1088,0.0001952,2.822e-05,0.0,0 STARLINK-3502,1 51746U 22016AJ  23330.62156917  .00002822  00000-0  19520-3 0  9996,2 51746  53.2157  93.4053 0001396  84.0063 276.1088 15.08860078 97788,6917.819,95.436,540.65,538.718,0.0
51746.0,STARLINK-3502,PAYLOAD,2023-11-27 11:35:05,15.08835237,0.0001324,53.2159,89.54,82.8051,277.3092,-0.00012703,-2.309e-05,0.0,0 STARLINK-3502,1 51746U 22016AJ  23331.48270128 -.00002309  00000-0 -12703-3 0  9990,2 51746  53.2159  89.5400 0001324  82.8051 277.3092 15.08835237 99033,6917.895,95.438,540.676,538.844,0.0
51746.0,STARLINK-3502,PAYLOAD,2023-11-27 13:10:28,15.0883481,0.0001262,53.2161,89.2413,86.5985,273.5151,-0.00012456,-2.269e-05,0.0,0 STARLINK-3502,1 51746U 22016AJ  23331.54894141 -.00002269  00000-0 -12456-3 0  9994,2 51746  53.2161  89.2413 0001262  86.5985 273.5151 15.08834810 97921,6917.896,95.438,540.634,538.888,0.0
51746.0,STARLINK-3502,PAYLOAD,2023-11-28 13:01:14,15.08855408,0.0001494,53.2171,84.7782,105.8519,254.2638,0.00021807,3.186e-05,0.0,0 STARLINK-3502,1 51746U 22016AJ  23332.54253231  .00003186  00000-0  21807-3 0  9991,2 51746  53.2171  84.7782 0001494 105.8519 254.2638 15.08855408 98075,6917.833,95.437,540.732,538.665,0.0
51746.0,STARLINK-3502,PAYLOAD,2023-11-29 11:16:39,15.08839751,0.0001235,53.2172,80.6186,86.1927,273.9206,0.00019342,2.792e-05,0.0,0 STARLINK-3502,1 51746U 22016AJ  23333.46990420  .00002792  00000-0  19342-3 0  9994,2 51746  53.2172  80.6186 0001235  86.1927 273.9206 15.08839751 99338,6917.881,95.438,540.601,538.892,0.0
51746.0,STARLINK-3502,PAYLOAD,2023-11-29 14:27:25,15.08846582,0.0001338,53.2167,80.0234,108.1941,251.9197,0.00030145,4.514e-05,0.0,0 STARLINK-3502,1 51746U 22016AJ  23333.60238057  .00004514  00000-0  30145-3 0  9999,2 51746  53.2167  80.0234 0001338 108.1941 251.9197 15.08846582 98238,6917.86,95.437,540.651,538.8,0.0
51746.0,STARLINK-3502,PAYLOAD,2023-11-30 11:07:26,15.08844277,0.0001382,53.2175,76.1545,110.7445,249.3695,-8.0826e-05,-1.574e-05,0.0,0 STARLINK-3502,1 51746U 22016AJ  23334.46350088 -.00001574  00000-0 -80826-4 0  9990,2 51746  53.2175  76.1545 0001382 110.7445 249.3695 15.08844277 99486,6917.867,95.437,540.688,538.776,0.0
51746.0,STARLINK-3502,PAYLOAD,2023-12-01 10:58:14,15.08840267,0.0001413,53.2178,71.6966,75.5219,284.5929,4.2239e-05,3.84e-06,0.0,0 STARLINK-3502,1 51746U 22016AJ  23335.45710861  .00000384  00000-0  42239-4 0  9991,2 51746  53.2178  71.6966 0001413  75.5219 284.5929 15.08840267 99631,6917.88,95.438,540.722,538.767,0.0
51746.0,STARLINK-3502,PAYLOAD,2023-12-01 14:08:59,15.08855548,0.000129,53.217,71.1036,90.0439,270.0701,0.00026975,4.01e-05,0.0,0 STARLINK-3502,1 51746U 22016AJ  23335.58958022  .00004010  00000-0  26975-3 0  9996,2 51746  53.2170  71.1036 0001290  90.0439 270.0701 15.08855548 99653,6917.833,95.437,540.59,538.805,0.0
51746.0,STARLINK-3502,PAYLOAD,2023-12-02 10:49:00,15.08850199,0.0001663,53.2175,67.2396,65.3045,294.812,0.00024502,3.615e-05,0.0,0 STARLINK-3502,1 51746U 22016AJ  23336.45070412  .00003615  00000-0  24502-3 0  9995,2 51746  53.2175  67.2396 0001663  65.3045 294.8120 15.08850199 99785,6917.849,95.437,540.865,538.564,0.0
51746.0,STARLINK-3502,PAYLOAD,2023-12-02 13:59:47,15.08813165,0.0001053,53.2172,66.6469,64.6967,295.4134,-0.00051747,-8.508e-05,0.0,0 STARLINK-3502,1 51746U 22016AJ  23336.58319313 -.00008508  00000-0 -51747-3 0  9994,2 51746  53.2172  66.6469 0001053  64.6967 295.4134 15.08813165 98686,6917.962,95.439,540.556,539.099,0.0
51746.0,STARLINK-3502,PAYLOAD,2023-12-03 12:15:12,15.08837396,0.0001436,53.2195,62.4846,86.5409,273.5747,4.8477e-05,4.84e-06,0.0,0 STARLINK-3502,1 51746U 22016AJ  23337.51056393  .00000484  00000-0  48477-4 0  9994,2 51746  53.2195  62.4846 0001436  86.5409 273.5747 15.08837396 99942,6917.888,95.438,540.747,538.76,0.0
51746.0,STARLINK-3502,PAYLOAD,2023-12-04 12:05:59,15.08856117,0.000114,53.2185,58.0294,137.0957,223.0124,0.00086769,0.00013554,0.0,0 STARLINK-3502,1 51746U 22016AJ  23338.50415860  .00013554  00000-0  86769-3 0  9999,2 51746  53.2185  58.0294 0001140 137.0957 223.0124 15.08856117100091,6917.831,95.437,540.485,538.907,0.0
51746.0,STARLINK-3502,PAYLOAD,2023-12-05 11:56:45,15.08857522,8.69e-05,53.2177,53.5587,91.233,268.8762,0.00016128,2.281e-05,0.0,0 STARLINK-3502,1 51746U 22016AJ  23339.49775009  .00002281  00000-0  16128-3 0  9999,2 51746  53.2177  53.5587 0000869  91.2330 268.8762 15.08857522100243,6917.827,95.436,540.293,539.091,0.0
51746.0,STARLINK-3502,PAYLOAD,2023-12-05 15:07:31,15.08857786,8.58e-05,53.2175,52.9647,95.9622,264.1468,0.00015153,2.126e-05,0.0,0 STARLINK-3502,1 51746U 22016AJ  23339.63022842  .00002126  00000-0  15153-3 0  9990,2 51746  53.2175  52.9647 0000858  95.9622 264.1468 15.08857786 99144,6917.826,95.436,540.285,539.097,0.0
51746.0,STARLINK-3502,PAYLOAD,2023-12-06 10:12:09,15.08848609,9.89e-05,53.2183,49.3949,103.6239,256.4863,-0.00010095,-1.894e-05,0.0,0 STARLINK-3502,1 51746U 22016AJ  23340.42511463 -.00001894  00000-0 -10095-3 0  9994,2 51746  53.2183  49.3949 0000989 103.6239 256.4863 15.08848609100380,6917.854,95.437,540.403,539.035,0.0
51746.0,STARLINK-3502,PAYLOAD,2023-12-07 10:02:57,15.08838386,0.0001092,53.2182,44.9339,115.2483,244.8622,-3.6164e-05,-8.63e-06,0.0,0 STARLINK-3502,1 51746U 22016AJ  23341.41871767 -.00000863  00000-0 -36164-4 0  9991,2 51746  53.2182  44.9339 0001092 115.2483 244.8622 15.08838386100531,6917.885,95.438,540.506,538.995,0.0
51746.0,STARLINK-3502,PAYLOAD,2023-12-07 13:13:42,15.08869306,8.91e-05,53.2184,44.3392,112.2791,247.8295,-0.00040873,-6.792e-05,0.0,0 STARLINK-3502,1 51746U 22016AJ  23341.55118735 -.00006792  00000-0 -40873-3 0  9993,2 51746  53.2184  44.3392 0000891 112.2791 247.8295 15.08869306 99432,6917.791,95.436,540.272,539.039,0.0
51746.0,STARLINK-3502,PAYLOAD,2023-12-08 03:32:11,15.08834813,0.0001082,53.2186,41.6675,89.9592,270.1524,8.8695e-05,1.124e-05,0.0,0 STARLINK-3502,1 51746U 22016AJ  23342.14735887  .00001124  00000-0  88695-4 0  9999,2 51746  53.2186  41.6675 0001082  89.9592 270.1524 15.08834813100645,6917.896,95.438,540.51,539.013,0.0
51746.0,STARLINK-3502,PAYLOAD,2023-12-08 13:04:30,15.08842664,0.0001131,53.2188,39.8835,90.8161,269.2961,0.00014594,2.036e-05,0.0,0 STARLINK-3502,1 51746U 22016AJ  23342.54479348  .00002036  00000-0  14594-3 0  9999,2 51746  53.2188  39.8835 0001131  90.8161 269.2961 15.08842664 99589,6917.872,95.437,540.52,538.955,0.0
51746.0,STARLINK-3502,PAYLOAD,2023-12-09 11:19:54,15.08842763,0.0001147,53.2184,35.7199,84.4344,275.6779,7.3184e-05,8.77e-06,0.0,0 STARLINK-3502,1 51746U 22016AJ  23343.47215655  .00000877  00000-0  73184-4 0  9993,2 51746  53.2184  35.7199 0001147  84.4344 275.6779 15.08842763100842,6917.872,95.437,540.53,538.943,0.0
51746.0,STARLINK-3502,PAYLOAD,2023-12-10 12:46:04,15.08842997,0.0001401,53.219,30.9628,71.4866,288.6279,3.1867e-05,2.19e-06,0.0,0 STARLINK-3502,1 51746U 22016AJ  23344.53199755  .00000219  00000-0  31867-4 0  9995,2 51746  53.2190  30.9628 0001401  71.4866 288.6279 15.08842997 99880,6917.871,95.437,540.705,538.767,0.0
